91P/Russell,e,14.4113,245.7593,356.8958,3.899396,0.1279994,0.33581346,117.7585,05/22.0/2023,2000,g  7.5,6.0
# From MPEC 2014-J58
92P/Sanguin,e,19.5062,181.3616,163.8140,5.342918,0.0798061,0.66085837,239.1615,05/22.0/2023,2000,g 12.0,6.0
# From NK 2707
93P/Lovas,e,12.2035,339.6160,74.8731,4.379100,0.1075541,0.61375023,244.1791,05/22.0/2023,2000,g  9.0,4.0
# From MPEC 2023-K53
94P/Russell,e,6.1876,70.8550,92.4170,3.509995,0.1498802,0.36550663,0.1390,05/22.0/2023,2000,g  9.0,6.0
# From MPC 75717
95P/Chiron,e,6.9176,209.3065,339.4061,13.71277,0.0194096,0.37629914,194.6361,05/22.0/2023,2000,g  6.5,2.0
# From MPEC 2023-K53
96P/Machholz,e,57.5049,93.9532,14.7486,3.030644,0.1868107,0.96158430,20.7202,05/22.0/2023,2000,g 13.0,4.8
# From MPEC 2022-C56
97P/Metcalf-Brewington,e,17.9517,184.0777,230.0322,4.763276,0.0948081,0.46025218,43.6338,05/22.0/2023,2000,g  5.5,6.0
# From MPEC 2021-W31
98P/Takamizawa,e,10.5629,114.6688,157.7778,3.792383,0.1334553,0.56224640,115.7830,05/22.0/2023,2000,g  9.0,8.0
# From MPEC 2023-K53
99P/Kowal,e,4.3398,28.1009,174.8020,6.100642,0.0654095,0.22869822,26.5307,05/22.0/2023,2000,g  4.5,6.0
# From MPEC 2022-QD9
100P/Hartley,e,25.5668,37.6873,181.9596,3.430875,0.1550946,0.41192109,44.0608,05/22.0/2023,2000,g  9.0,8.0
# From MPEC 2022-K19
101P/Chernykh,e,5.0503,116.1926,277.8024,5.810267,0.0703736,0.59638640,86.1892,05/22.0/2023,2000,g 10.0,4.8
# From MPEC 2022-C56
102P/Shoemaker,e,25.8781,339.3712,20.6640,3.817001,0.1321663,0.45699882,112.2595,05/22.0/2023,2000,g  6.5,8.0
# From MPEC 2023-K53
103P/Hartley,e,13.6103,219.7511,181.3033,3.474855,0.1521595,0.69377354,338.1621,05/22.0/2023,2000,g  8.5,8.0
# From MPEC 2023-G31
104P/Kowal,e,5.7029,207.2076,227.2514,3.208529,0.1714925,0.66568838,84.9394,05/22.0/2023,2000,g 16.0,4.0
# From MPC109147
105P/Singer Brewster,e,9.1684,192.3958,46.4119,3.469992,0.1524794,0.40883712,266.6852,05/22.0/2023,2000,g 11.5,6.0
# From MPEC 2022-GA9
106P/Schuster,e,19.5389,48.8657,353.7347,3.765889,0.1348661,0.59395764,86.4605,05/22.0/2023,2000,g 14.0,4.8
# From MPEC 2015-M77
107P/Wilson-Harrington,e,2.7990,266.7702,95.4533,2.624572,0.2318015,0.63162693,62.6673,05/22.0/2023,2000,g  9.0,4.0
# From MPEC 2022-P82
108P/Ciffreo,e,11.4373,50.2734,354.4909,3.741338,0.1361958,0.55610317,84.2712,05/22.0/2023,2000,g  8.0,12.0
# From  105, 420
109P/Swift-Tuttle,e,113.6708,139.2829,153.0853,26.20044,0.0073492,0.96260115,81.6833,05/22.0/2023,2000,g  4.0,6.0
# From MPEC 2023-K53
110P/Hartley,e,11.7049,287.5119,167.4729,3.603974,0.1440561,0.31875450,83.6338,05/22.0/2023,2000,g  1.0,12.0
# From MPC 75718
111P/Helin-Roman-Crockett,e,4.2258,89.7469,1.1421,4.151288,0.1165278,0.10691412,82.0666,05/22.0/2023,2000,g  5.0,8.0
# From MPEC 2021-S45
112P/Urata-Niijima,e,24.2130,31.8345,21.4758,3.524312,0.1489678,0.59063020,178.4820,05/22.0/2023,2000,g 14.0,6.0
# From MPEC 2023-HD1
113P/Spitaler,e,5.2891,306.6768,115.5597,3.692539,0.1389046,0.41988971,49.2343,05/22.0/2023,2000,g 14.9,4.0
# From MPEC 2023-A50
114P/Wiseman-Skiff,e,18.2918,271.0238,172.7477,3.542659,0.1478121,0.55555070,180.8267,05/22.0/2023,2000,g 11.5,6.0
# From MPEC 2023-J29
115P/Maury,e,11.6772,176.0092,120.9978,4.272121,0.1116192,0.51786440,114.6361,05/22.0/2023,2000,g 10.5,6.0
# From MPEC 2023-J29
116P/Wild,e,3.6034,20.9781,173.2541,3.489022,0.1512337,0.37037585,46.7610,05/22.0/2023,2000,g  2.5,10.0
# From MPEC 2023-J95
117P/Helin-Roman-Alu,e,8.7039,58.8306,223.0776,4.085064,0.1193729,0.25576004,37.9145,05/22.0/2023,2000,g  2.5,8.0
# From MPEC 2023-K53
118P/Shoemaker-Levy,e,10.0913,142.0968,314.8506,3.347143,0.1609506,0.45354653,28.7511,05/22.0/2023,2000,g 12.0,4.0
# From MPEC 2023-K53
119P/Parker-Hartley,e,7.3930,104.5699,322.0999,3.805399,0.1327711,0.38829030,37.5598,05/22.0/2023,2000,g  3.5,8.0
# From MPEC 2022-CN4
120P/Mueller,e,8.4889,358.6743,36.6960,3.966295,0.1247747,0.37486305,92.8784,05/22.0/2023,2000,g 12.0,4.0
# From MPEC 2023-D41
121P/Shoemaker-Holt,e,20.1648,94.1151,11.6533,4.583981,0.1004245,0.18623447,356.2135,05/22.0/2023,2000,g  6.5,8.0
# From MPC 75718
122P/de Vico,e,85.6913,79.6828,12.9901,17.62495,0.0133202,0.96236383,134.7260,05/22.0/2023,2000,g  7.5,5.2
# From MPEC 2021-F20
123P/West-Hartley,e,15.2874,45.8959,104.0829,3.880636,0.1289287,0.44428232,202.6778,05/22.0/2023,2000,g 12.2,4.0
# From MPEC 2022-YN2
124P/Mrkos,e,31.5562,0.1162,185.2544,3.368623,0.1594137,0.48845665,180.1560,05/22.0/2023,2000,g 13.5,2.8
# From MPEC 2022-YB4
125P/Spacewatch,e,9.9857,153.1522,87.1620,3.128491,0.1781155,0.51208584,308.2886,05/22.0/2023,2000,g 13.0,6.0
# From MPEC 2023-J95
126P/IRAS,e,45.8762,357.8716,356.5974,5.635314,0.0736761,0.69646362,356.7337,05/22.0/2023,2000,g  6.0,8.0
# From MPEC 2023-D41
127P/Holt-Olmstead,e,14.3012,13.6046,6.2674,3.452069,0.1536685,0.35944950,43.7353,05/22.0/2023,2000,g 11.0,6.0
# From MPC 89014
128P/Shoemaker-Holt,e,4.3704,214.3288,210.2933,4.487528,0.1036796,0.32204265,240.6285,05/22.0/2023,2000,g  8.5,4.0
# From MPEC 2023-HD1
129P/Shoemaker-Levy,e,3.4424,184.8611,307.4490,4.289533,0.1109402,0.08512852,19.1836,05/22.0/2023,2000,g 13.0,4.0
# From MPEC 2023-K53
130P/McNaught-Hughes,e,6.0632,70.1801,246.1078,3.382727,0.1584177,0.46107486,307.9082,05/22.0/2023,2000,g 10.0,6.0
# From MPC102101
131P/Mueller,e,7.3617,214.1483,179.0879,3.678295,0.1397121,0.34478922,220.2705,05/22.0/2023,2000,g 11.0,4.0
# From MPEC 2022-TD3
132P/Helin-Roman-Alu,e,5.3825,173.9956,216.4104,3.888759,0.1285250,0.56471513,71.3041,05/22.0/2023,2000,g 11.0,6.0
# From MPC 94676
133P/Elst-Pizarro,e,1.3898,160.1005,131.8978,3.165463,0.1750041,0.15632056,298.0118,05/22.0/2023,2000,g 15.4,2.0
# From MPC 89012
134P/Kowal-Vavrova,e,4.3342,202.0481,18.8136,6.265259,0.0628486,0.58500497,207.3010,05/22.0/2023,2000,g 11.5,4.0
# From MPEC 2022-OB6
135P/Shoemaker-Levy,e,6.0635,213.0240,22.3413,3.799817,0.1330638,0.29457553,54.5061,05/22.0/2023,2000,g  7.0,8.0
# From MPEC 2020-W26
136P/Mueller,e,9.4250,137.4279,225.1374,4.188359,0.1149842,0.29337631,291.9677,05/22.0/2023,2000,g 11.0,4.0
# From MPEC 2023-J29
137P/Shoemaker-Levy,e,4.8587,232.9416,141.1752,4.521716,0.1025060,0.57380669,165.9552,05/22.0/2023,2000,g 11.0,4.0
# From MPEC 2016-U66
138P/Shoemaker-Levy,e,10.0913,309.2698,95.6141,3.619961,0.1431028,0.53145003,211.5904,05/22.0/2023,2000,g 15.0,6.0
# From MPEC 2020-HN5
139P/Vaisala-Oterma,e,2.3373,242.1383,165.7945,4.517962,0.1026338,0.24804498,203.8324,05/22.0/2023,2000,g  9.5,4.0
# From MPEC 2015-E14
140P/Bowell-Skiff,e,3.8404,343.2381,172.6312,6.410379,0.0607265,0.69478498,173.0569,05/22.0/2023,2000,g 11.5,6.0
# From MPEC 2021-AJ0
141P/Machholz,e,13.9578,241.7867,153.6109,3.057712,0.1843356,0.73607222,163.3842,05/22.0/2023,2000,g 14.7,4.0
# From MPEC 2022-SU8
141P-I/Machholz,e,13.9570,241.7923,153.5863,3.048292,0.1851907,0.73527475,164.2254,05/22.0/2023,2000,g 17.5,4.0
# From MPEC 2021-Y10
142P/Ge-Wang,e,12.2512,175.9347,174.0360,5.000815,0.0881339,0.49699396,65.1577,05/22.0/2023,2000,g  8.5,6.0
# From MPEC 2023-J29
143P/Kowal-Mrkos,e,4.7460,244.7626,320.4234,4.267192,0.1118126,0.41537777,206.0436,05/22.0/2023,2000,g 13.5,2.0
# From MPC104795
144P/Kushida,e,3.9305,242.9400,216.3442,3.831335,0.1314253,0.63504355,327.3237,05/22.0/2023,2000,g  8.5,8.0
# From MPC108598
145P/Shoemaker-Levy,e,11.2800,26.7966,10.2857,4.135064,0.1172143,0.54247545,244.4632,05/22.0/2023,2000,g 13.5,4.0
# From MPC100284
146P/Shoemaker-LINEAR,e,23.1211,53.3758,317.0387,4.028477,0.1218969,0.64749274,306.1869,05/22.0/2023,2000,g 15.0,4.0
# From MPC 75720
147P/Kushida-Muramatsu,e,2.3103,91.6862,348.4685,4.020341,0.1222671,0.21432205,335.7081,05/22.0/2023,2000,g 14.0,4.0
# From MPEC 2023-HD1
148P/Anderson-LINEAR,e,3.6581,89.2043,8.0437,3.619280,0.1431432,0.55002009,48.9955,05/22.0/2023,2000,g 16.2,4.0
# From MPEC 2023-J29
149P/Mueller,e,34.2694,143.9175,30.4975,4.121931,0.1177750,0.32450829,206.0949,05/22.0/2023,2000,g  8.0,8.0
# From MPEC 2022-YN2
150P/LONEOS,e,18.5420,272.0668,246.0589,3.871764,0.1293721,0.54899935,321.7851,05/22.0/2023,2000,g 13.5,4.0
# From MPEC 2022-K19
151P/Helin,e,4.7269,143.1411,216.1352,5.763294,0.0712357,0.57368629,197.8134,05/22.0/2023,2000,g 10.0,6.0
# From MPEC 2022-UY9
152P/Helin-Lawrence,e,9.8784,91.8413,164.1120,4.478994,0.1039761,0.30862168,51.2246,05/22.0/2023,2000,g 11.5,4.0
# From MPC 46101
153P/Ikeya-Zhang,e,28.2197,93.5365,34.6042,50.35308,0.0027584,0.98982110,0.0000,03/03.2895/2002,2000,g  9.0,4.0
# From MPEC 2022-K19
154P/Brewington,e,17.6328,343.0226,47.9332,4.796830,0.0938151,0.67615853,323.7457,05/22.0/2023,2000,g  2.5,12.0
# From MPEC 2022-YN2
155P/Shoemaker,e,6.4033,97.1670,14.5353,6.572097,0.0584990,0.72684019,75.0935,05/22.0/2023,2000,g 10.0,4.8
# From MPEC 2023-J29
156P/Russell-LINEAR,e,17.2704,35.3423,0.4823,3.462263,0.1529903,0.61516258,139.9444,05/22.0/2023,2000,g 15.5,2.0
# From MPEC 2023-HD1
157P/Tritton,e,12.4199,287.5415,155.0792,3.545732,0.1476200,0.55668504,37.5200,05/22.0/2023,2000,g 15.0,4.0
# From MPEC 2022-VC5
157P-B/Tritton,e,12.4267,287.0842,153.9556,3.101515,0.1804443,0.49975796,46.1887,05/22.0/2023,2000,g 15.7,4.0
# From MPEC 2023-A50
158P/Kowal-LINEAR,e,7.3695,131.2283,199.2851,5.408883,0.0783507,0.10441741,38.9794,05/22.0/2023,2000,g  9.0,4.0
# From MPEC 2021-N06
159P/LONEOS,e,23.4852,54.9424,4.5945,5.852813,0.0696077,0.38263459,126.9810,05/22.0/2023,2000,g 10.0,4.0
# From MPEC 2022-K19
160P/LINEAR,e,15.6087,333.3596,12.7897,3.777175,0.1342621,0.52595642,170.0259,05/22.0/2023,2000,g 15.5,2.0
# From MPC 75721
161P/Hartley-IRAS,e,95.7987,1.5731,47.0449,7.715700,0.0459876,0.83557596,300.8560,05/22.0/2023,2000,g  8.5,6.0
# From MPEC 2023-K53
162P/SidingSpring,e,27.5651,30.8881,357.1945,3.092182,0.1812618,0.58316242,162.1977,05/22.0/2023,2000,g 12.0,4.0
# From MPEC 2021-S45
163P/NEAT,e,12.7176,102.0660,349.5580,3.764345,0.1349491,0.45274792,186.9468,05/22.0/2023,2000,g 14.5,4.0
# From MPEC 2021-F20
164P/Christensen,e,16.2718,88.2651,325.8847,3.653984,0.1411088,0.54104765,256.0861,05/22.0/2023,2000,g 11.0,4.0
# From MPC 75721
